NORAD_CAT_ID,OBJECT_NAME,OBJECT_TYPE,EPOCH,MEAN_MOTION,ECCENTRICITY,INCLINATION,RA_OF_ASC_NODE,ARG_OF_PERICENTER,MEAN_ANOMALY,BSTAR,MEAN_MOTION_DOT,MEAN_MOTION_DDOT,TLE_LINE0,TLE_LINE1,TLE_LINE2,SEMIMAJOR_AXIS,PERIOD,APOGEE,PERIGEE,DECAYED
51793.0,STARLINK-3633,PAYLOAD,2023-10-09 12:43:40,15.08854699,0.0001767,53.2173,349.2898,94.367,265.7524,0.0003468,5.238e-05,0.0,0 STARLINK-3633,1 51793U 22017AB  23282.53032715  .00005238  00000-0  34680-3 0  9992,2 51793  53.2173 349.2898 0001767  94.3670 265.7524 15.08854699 90792,6917.835,95.437,540.923,538.478,0.0
51793.0,STARLINK-3633,PAYLOAD,2023-10-10 10:59:04,15.08850871,0.0001649,53.2184,345.1243,98.538,261.5799,0.00026633,3.954e-05,0.0,0 STARLINK-3633,1 51793U 22017AB  23283.45768539  .00003954  00000-0  26633-3 0  9996,2 51793  53.2184 345.1243 0001649  98.5380 261.5799 15.08850871 90938,6917.847,95.437,540.853,538.571,0.0
51793.0,STARLINK-3633,PAYLOAD,2023-10-10 12:34:27,15.08853334,0.0001604,53.2172,344.8282,98.7444,261.373,0.00027854,4.149e-05,0.0,0 STARLINK-3633,1 51793U 22017AB  23283.52392419  .00004149  00000-0  27854-3 0  9997,2 51793  53.2172 344.8282 0001604  98.7444 261.3730 15.08853334 90949,6917.84,95.437,540.814,538.595,0.0
51793.0,STARLINK-3633,PAYLOAD,2023-10-10 14:09:50,15.08853892,0.0001605,53.2173,344.5307,98.7624,261.355,0.00027852,4.149e-05,0.0,0 STARLINK-3633,1 51793U 22017AB  23283.59016343  .00004149  00000-0  27852-3 0  9991,2 51793  53.2173 344.5307 0001605  98.7624 261.3550 15.08853892 90956,6917.838,95.437,540.813,538.593,0.0
51793.0,STARLINK-3633,PAYLOAD,2023-10-11 04:28:19,15.08833657,0.0001653,53.2178,341.8561,92.4173,267.7008,-4.8378e-05,-1.058e-05,0.0,0 STARLINK-3633,1 51793U 22017AB  23284.18633342 -.00001058  00000-0 -48378-4 0  9996,2 51793  53.2178 341.8561 0001653  92.4173 267.7008 15.08833657 91042,6917.9,95.438,540.908,538.621,0.0
51793.0,STARLINK-3633,PAYLOAD,2023-10-11 10:49:51,15.08834153,0.000159,53.2169,340.6674,81.2083,278.9089,-4.3935e-05,-9.87e-06,0.0,0 STARLINK-3633,1 51793U 22017AB  23284.45129446 -.00000987  00000-0 -43935-4 0  9995,2 51793  53.2169 340.6674 0001590  81.2083 278.9089 15.08834153 91089,6917.898,95.438,540.863,538.663,0.0
51793.0,STARLINK-3633,PAYLOAD,2023-10-12 10:40:39,15.08848763,0.0001593,53.2171,336.2089,80.871,279.2462,0.00047969,7.356e-05,0.0,0 STARLINK-3633,1 51793U 22017AB  23285.44489592  .00007356  00000-0  47969-3 0  9991,2 51793  53.2171 336.2089 0001593  80.8710 279.2462 15.08848763 91236,6917.854,95.437,540.821,538.617,0.0
51793.0,STARLINK-3633,PAYLOAD,2023-10-12 20:12:58,15.08839967,0.0001511,53.216,334.4241,81.3382,278.7782,0.00044169,6.748e-05,0.0,0 STARLINK-3633,1 51793U 22017AB  23285.84233871  .00006748  00000-0  44169-3 0  9995,2 51793  53.2160 334.4241 0001511  81.3382 278.7782 15.08839967 91296,6917.88,95.438,540.791,538.7,0.0
51793.0,STARLINK-3633,PAYLOAD,2023-10-13 04:09:53,15.08832909,0.0001643,53.2172,332.9385,87.7161,272.4019,4.299e-05,3.96e-06,0.0,0 STARLINK-3633,1 51793U 22017AB  23286.17354154  .00000396  00000-0  42990-4 0  9994,2 51793  53.2172 332.9385 0001643  87.7161 272.4019 15.08832909 91341,6917.902,95.438,540.904,538.63,0.0
51793.0,STARLINK-3633,PAYLOAD,2023-10-13 10:31:26,15.08841291,0.0001835,53.2179,331.7482,89.5851,270.5351,0.00019177,2.765e-05,0.0,0 STARLINK-3633,1 51793U 22017AB  23286.43849906  .00002765  00000-0  19177-3 0  9999,2 51793  53.2179 331.7482 0001835  89.5851 270.5351 15.08841291 91388,6917.876,95.437,541.011,538.472,0.0
51793.0,STARLINK-3633,PAYLOAD,2023-10-14 10:22:12,15.08853366,0.0001842,53.2174,327.287,90.8716,269.2488,0.00024492,3.613e-05,0.0,0 STARLINK-3633,1 51793U 22017AB  23287.43209151  .00003613  00000-0  24492-3 0  9991,2 51793  53.2174 327.2870 0001842  90.8716 269.2488 15.08853366 91536,6917.84,95.437,540.979,538.43,0.0
51793.0,STARLINK-3633,PAYLOAD,2023-10-14 19:54:31,15.08840233,0.0001667,53.2168,325.5036,84.7632,275.355,3.1847e-05,2.19e-06,0.0,0 STARLINK-3633,1 51793U 22017AB  23287.82953675  .00000219  00000-0  31847-4 0  9993,2 51793  53.2168 325.5036 0001667  84.7632 275.3550 15.08840233 91591,6917.88,95.438,540.898,538.591,0.0
51793.0,STARLINK-3633,PAYLOAD,2023-10-15 10:13:00,15.08829555,0.0001598,53.216,322.8256,90.2982,269.8193,-9.6619e-05,-1.825e-05,0.0,0 STARLINK-3633,1 51793U 22017AB  23288.42570434 -.00001825  00000-0 -96619-4 0  9992,2 51793  53.2160 322.8256 0001598  90.2982 269.8193 15.08829555 91685,6917.912,95.438,540.883,538.672,0.0
51793.0,STARLINK-3633,PAYLOAD,2023-10-15 19:45:19,15.08835254,0.000161,53.2161,321.0417,85.5407,274.5769,8.939e-05,1.135e-05,0.0,0 STARLINK-3633,1 51793U 22017AB  23288.82314582  .00001135  00000-0  89390-4 0  9996,2 51793  53.2161 321.0417 0001610  85.5407 274.5769 15.08835254 91742,6917.895,95.438,540.874,538.646,0.0
51793.0,STARLINK-3633,PAYLOAD,2023-10-16 08:28:24,15.08849266,0.0001529,53.2154,318.6623,91.0665,269.0503,0.00093993,0.00014706,0.0,0 STARLINK-3633,1 51793U 22017AB  23289.35306692  .00014706  00000-0  93993-3 0  9999,2 51793  53.2154 318.6623 0001529  91.0665 269.0503 15.08849266 91824,6917.852,95.437,540.775,538.659,0.0
51793.0,STARLINK-3633,PAYLOAD,2023-10-17 11:29:57,15.08861716,0.0001561,53.2151,313.6057,93.8405,266.2766,0.00061878,9.579e-05,0.0,0 STARLINK-3633,1 51793U 22017AB  23290.47913942  .00009579  00000-0  61878-3 0  9995,2 51793  53.2151 313.6057 0001561  93.8405 266.2766 15.08861716 91997,6917.814,95.436,540.759,538.599,0.0
51793.0,STARLINK-3633,PAYLOAD,2023-10-18 01:48:26,15.08843586,0.0001787,53.2157,310.9291,91.4117,268.708,0.00010957,1.456e-05,0.0,0 STARLINK-3633,1 51793U 22017AB  23291.07530342  .00001456  00000-0  10957-3 0  9999,2 51793  53.2157 310.9291 0001787  91.4117 268.7080 15.08843586 92089,6917.869,95.437,540.971,538.498,0.0
51793.0,STARLINK-3633,PAYLOAD,2023-10-18 11:20:45,15.08844346,0.0001658,53.2164,309.1452,97.0493,263.0688,0.00014378,2.001e-05,0.0,0 STARLINK-3633,1 51793U 22017AB  23291.47274320  .00002001  00000-0  14378-3 0  9992,2 51793  53.2164 309.1452 0001658  97.0493 263.0688 15.08844346 92146,6917.867,95.437,540.879,538.585,0.0
51793.0,STARLINK-3633,PAYLOAD,2023-10-19 08:00:45,15.08852099,0.0001719,53.2168,305.2768,99.1797,260.9389,0.00036974,5.603e-05,0.0,0 STARLINK-3633,1 51793U 22017AB  23292.33386030  .00005603  00000-0  36974-3 0  9997,2 51793  53.2168 305.2768 0001719  99.1797 260.9389 15.08852099 92277,6917.843,95.437,540.898,538.519,0.0
51793.0,STARLINK-3633,PAYLOAD,2023-10-19 17:33:04,15.08850916,0.0001668,53.217,303.4948,83.9681,276.1502,0.00034346,5.184e-05,0.0,0 STARLINK-3633,1 51793U 22017AB  23292.73130048  .00005184  00000-0  34346-3 0  9992,2 51793  53.2170 303.4948 0001668  83.9681 276.1502 15.08850916 92335,6917.847,95.437,540.866,538.558,0.0
51793.0,STARLINK-3633,PAYLOAD,2023-10-20 04:40:46,15.08833991,0.0001673,53.2174,301.4144,91.8657,268.2527,-4.9399e-05,-1.074e-05,0.0,0 STARLINK-3633,1 51793U 22017AB  23293.19498585 -.00001074  00000-0 -49399-4 0  9997,2 51793  53.2174 301.4144 0001673  91.8657 268.2527 15.08833991 92403,6917.899,95.438,540.921,538.606,0.0
51793.0,STARLINK-3633,PAYLOAD,2023-10-20 06:16:10,15.08831354,0.0001912,53.2182,301.1191,106.0719,254.0484,-0.00016092,-2.848e-05,0.0,0 STARLINK-3633,1 51793U 22017AB  23293.26122697 -.00002848  00000-0 -16092-3 0  9996,2 51793  53.2182 301.1191 0001912 106.0719 254.0484 15.08831354 92412,6917.907,95.438,541.095,538.449,0.0
51793.0,STARLINK-3633,PAYLOAD,2023-10-21 10:53:06,15.08843078,0.0001674,53.217,295.7622,83.7996,276.3187,0.00021761,3.177e-05,0.0,0 STARLINK-3633,1 51793U 22017AB  23294.45354885  .00003177  00000-0  21761-3 0  9997,2 51793  53.2170 295.7622 0001674  83.7996 276.3187 15.08843078 92591,6917.871,95.437,540.894,538.578,0.0
51793.0,STARLINK-3633,PAYLOAD,2023-10-21 17:14:39,15.08843722,0.0001655,53.217,294.5727,83.8905,276.2275,0.00023116,3.393e-05,0.0,0 STARLINK-3633,1 51793U 22017AB  23294.71850794  .00003393  00000-0  23116-3 0  9992,2 51793  53.2170 294.5727 0001655  83.8905 276.2275 15.08843722 92632,6917.869,95.437,540.879,538.589,0.0
51793.0,STARLINK-3633,PAYLOAD,2023-10-22 09:08:29,15.08851719,0.0001815,53.2169,291.6007,97.3832,262.7366,0.00014587,2.035e-05,0.0,0 STARLINK-3633,1 51793U 22017AB  23295.38090228  .00002035  00000-0  14587-3 0  9998,2 51793  53.2169 291.6007 0001815  97.3832 262.7366 15.08851719 92733,6917.845,95.437,540.965,538.454,0.0
51793.0,STARLINK-3633,PAYLOAD,2023-10-22 17:05:26,15.08838283,0.0001515,53.2175,290.1127,90.7454,269.3711,0.00011077,1.475e-05,0.0,0 STARLINK-3633,1 51793U 22017AB  23295.71211013  .00001475  00000-0  11077-3 0  9990,2 51793  53.2175 290.1127 0001515  90.7454 269.3711 15.08838283 92784,6917.886,95.438,540.799,538.703,0.0
51793.0,STARLINK-3633,PAYLOAD,2023-10-23 16:56:13,15.08837465,0.0001577,53.2156,285.6526,101.2341,258.8828,3.7601e-05,3.1e-06,0.0,0 STARLINK-3633,1 51793U 22017AB  23296.70571148  .00000310  00000-0  37601-4 0  9997,2 51793  53.2156 285.6526 0001577 101.2341 258.8828 15.08837465 92936,6917.888,95.438,540.844,538.662,0.0
51793.0,STARLINK-3633,PAYLOAD,2023-10-24 05:39:18,15.08844086,0.0001581,53.2163,283.2746,90.1342,269.9832,0.00013557,1.87e-05,0.0,0 STARLINK-3633,1 51793U 22017AB  23297.23563086  .00001870  00000-0  13557-3 0  9993,2 51793  53.2163 283.2746 0001581  90.1342 269.9832 15.08844086 93019,6917.868,95.437,540.827,538.639,0.0
51793.0,STARLINK-3633,PAYLOAD,2023-10-24 08:50:04,15.08849924,0.0001592,53.2161,282.6781,95.4039,264.7135,0.00017347,2.475e-05,0.0,0 STARLINK-3633,1 51793U 22017AB  23297.36810719  .00002475  00000-0  17347-3 0  9998,2 51793  53.2161 282.6781 0001592  95.4039 264.7135 15.08849924 93039,6917.85,95.437,540.816,538.614,0.0
51793.0,STARLINK-3633,PAYLOAD,2023-10-25 08:40:52,15.08843371,0.0001743,53.2168,278.2181,96.6379,263.4811,0.00021549,3.143e-05,0.0,0 STARLINK-3633,1 51793U 22017AB  23298.36171331  .00003143  00000-0  21549-3 0  9991,2 51793  53.2168 278.2181 0001743  96.6379 263.4811 15.08843371 93182,6917.87,95.437,540.941,538.529,0.0
